{
    "links": {
        "self": "http://www.neowsapp.com/rest/v1/neo/3789377?api_key=iIulBulltgU6a56xZRHN4H3l9WmuAYTsLGpBGhQ2"
    },
    "id": "3789377",
    "neo_reference_id": "3789377",
    "name": "(2017 VJ13)",
    "designation": "2017 VJ13",
    "nasa_jpl_url": "http://ssd.jpl.nasa.gov/sbdb.cgi?sstr=3789377",
    "absolute_magnitude_h": 24.6,
    "estimated_diameter": {
        "kilometers": {
            "estimated_diameter_min": 0.0319561887,
            "estimated_diameter_max": 0.0714562102
        },
        "meters": {
            "estimated_diameter_min": 31.9561886721,
            "estimated_diameter_max": 71.4562101727
        },
        "miles": {
            "estimated_diameter_min": 0.0198566489,
            "estimated_diameter_max": 0.0444008168
        },
        "feet": {
            "estimated_diameter_min": 104.8431420431,
            "estimated_diameter_max": 234.436392583
        }
    },
    "is_potentially_hazardous_asteroid": false,
    "close_approach_data": [
        {
            "close_approach_date": "2014-11-25",
            "close_approach_date_full": "2014-Nov-25 10:03",
            "epoch_date_close_approach": 1416909780000,
            "relative_velocity": {
                "kilometers_per_second": "18.4030910257",
                "kilometers_per_hour": "66251.1276924419",
                "miles_per_hour": "41165.8743153398"
            },
            "miss_distance": {
                "astronomical": "0.4181444629",
                "lunar": "162.6581960681",
                "kilometers": "62553521.002134023",
                "miles": "38868955.5733065974"
            },
            "orbiting_body": "Earth"
        },
        {
            "close_approach_date": "2017-10-28",
            "close_approach_date_full": "2017-Oct-28 13:43",
            "epoch_date_close_approach": 1509198180000,
            "relative_velocity": {
                "kilometers_per_second": "7.8870739682",
                "kilometers_per_hour": "28393.4662855522",
                "miles_per_hour": "17642.5957594866"
            },
            "miss_distance": {
                "astronomical": "0.0773364408",
                "lunar": "30.0838754712",
                "kilometers": "11569366.817061096",
                "miles": "7188871.1877352848"
            },
            "orbiting_body": "Earth"
        }
    ],
    "orbital_data": {
        "orbit_id": "4",
        "orbit_determination_date": "2017-11-26 06:18:18",
        "first_observation_date": "2017-11-13",
        "last_observation_date": "2017-11-26",
        "data_arc_in_days": 13,
        "observations_used": 38,
        "orbit_uncertainty": "8",
        "minimum_orbit_intersection": ".0692055",
        "jupiter_tisserand_invariant": "3.620",
        "epoch_osculation": "2458073.5",
        "eccentricity": ".4929496689841087",
        "semi_major_axis": "2.053161258677012",
        "inclination": "6.618146859014347",
        "ascending_node_longitude": "231.0513766466911",
        "orbital_period": "1074.565809894584",
        "perihelion_distance": "1.041056095841183",
        "perihelion_argument": "146.1808919183384",
        "aphelion_distance": "3.06526642151284",
        "perihelion_time": "2458040.813502924746",
        "mean_anomaly": "10.95059868715329",
        "mean_motion": ".3350190343719538",
        "equinox": "J2000",
        "orbit_class": {
            "orbit_class_type": "AMO",
            "orbit_class_description": "Near-Earth asteroid orbits similar to that of 1221 Amor",
            "orbit_class_range": "1.017 AU < q (perihelion) < 1.3 AU"
        }
    },
    "is_sentry_object": false
}